{
  "type": "FeatureCollection",
  "features": [
    {
      "type": "Feature",
      "properties": {
        "norad_id": 41866,
        "name": "GOES 16",
        "group": "weather",
        "lat": 0.03715473310323211,
        "lon": 131.7562434970458,
        "alt_km": 35794.89865899427,
        "timestamp": "2025-12-04T10:51:49.749482+00:00",
        "meta_object_name": "GOES 16",
        "meta_object_id": "2016-071A",
        "meta_epoch": "2025-12-04T01:14:34.598976",
        "meta_mean_motion": 1.00270627,
        "meta_eccentricity": 0.0003448,
        "meta_inclination": 0.061,
        "meta_ra_of_asc_node": 105.5074,
        "meta_arg_of_pericenter": 151.8567,
        "meta_mean_anomaly": 89.7393,
        "meta_ephemeris_type": 0,
        "meta_classification_type": "U",
        "meta_norad_cat_id": 41866,
        "meta_element_set_no": 999,
        "meta_rev_at_epoch": 3314,
        "meta_bstar": 0,
        "meta_mean_motion_dot": -7.4e-07,
        "meta_mean_motion_ddot": 0,
        "tle_line1": "1 41866U 16071A   25338.05178934 -.00000074  00000+0  00000+0 0  9998",
        "tle_line2": "2 41866   0.0610 105.5074 0003448 151.8567  89.7393  1.00270627 33143"
      },
      "geometry": {
        "type": "Point",
        "coordinates": [
          131.7562434970458,
          0.03715473310323211
        ]
      }
    },
    {
      "type": "Feature",
      "properties": {
        "norad_id": 41882,
        "name": "FENGYUN 4A",
        "group": "weather",
        "lat": -1.7944757477389321,
        "lon": 0.2612412040071226,
        "alt_km": 35799.89706213578,
        "timestamp": "2025-12-04T10:51:49.749494+00:00",
        "meta_object_name": "FENGYUN 4A",
        "meta_object_id": "2016-077A",
        "meta_epoch": "2025-12-03T17:33:02.668032",
        "meta_mean_motion": 1.00278005,
        "meta_eccentricity": 0.00050458,
        "meta_inclination": 1.8246,
        "meta_ra_of_asc_node": 82.4798,
        "meta_arg_of_pericenter": 142.0307,
        "meta_mean_anomaly": 235.3013,
        "meta_ephemeris_type": 0,
        "meta_classification_type": "U",
        "meta_norad_cat_id": 41882,
        "meta_element_set_no": 999,
        "meta_rev_at_epoch": 3297,
        "meta_bstar": 0,
        "meta_mean_motion_dot": -3.4e-06,
        "meta_mean_motion_ddot": 0,
        "tle_line1": "1 41882U 16077A   25337.73128088 -.00000340  00000+0  00000+0 0  9997",
        "tle_line2": "2 41882   1.8246  82.4798 0005045 142.0307 235.3013  1.00278005 32976"
      },
      "geometry": {
        "type": "Point",
        "coordinates": [
          0.2612412040071226,
          -1.7944757477389321
        ]
      }
    },
    {
      "type": "Feature",
      "properties": {
        "norad_id": 41884,
        "name": "CYGFM05",
        "group": "weather",
        "lat": -11.350260168195687,
        "lon": -62.05780194887871,
        "alt_km": 425.96629844174913,
        "timestamp": "2025-12-04T10:51:49.749506+00:00",
        "meta_object_name": "CYGFM05",
        "meta_object_id": "2016-078A",
        "meta_epoch": "2025-12-03T18:31:05.680992",
        "meta_mean_motion": 15.47125161,
        "meta_eccentricity": 0.0009412,
        "meta_inclination": 34.9582,
        "meta_ra_of_asc_node": 105.6898,
        "meta_arg_of_pericenter": 97.1465,
        "meta_mean_anomaly": 263.0327,
        "meta_ephemeris_type": 0,
        "meta_classification_type": "U",
        "meta_norad_cat_id": 41884,
        "meta_element_set_no": 999,
        "meta_rev_at_epoch": 49837,
        "meta_bstar": 0.00060726,
        "meta_mean_motion_dot": 0.00031867,
        "meta_mean_motion_ddot": 0,
        "tle_line1": "1 41884U 16078A   25337.77159353  .00031867  00000+0  60726-3 0  9995",
        "tle_line2": "2 41884  34.9582 105.6898 0009412  97.1465 263.0327 15.47125161498370"
      },
      "geometry": {
        "type": "Point",
        "coordinates": [
          -62.05780194887871,
          -11.350260168195687
        ]
      }
    },
    {
      "type": "Feature",
      "properties": {
        "norad_id": 41885,
        "name": "CYGFM04",
        "group": "weather",
        "lat": -0.8675071446540162,
        "lon": 75.01338102357944,
        "alt_km": 420.16980532687467,
        "timestamp": "2025-12-04T10:51:49.749517+00:00",
        "meta_object_name": "CYGFM04",
        "meta_object_id": "2016-078B",
        "meta_epoch": "2025-12-03T16:19:08.760000",
        "meta_mean_motion": 15.49783379,
        "meta_eccentricity": 0.0008489,
        "meta_inclination": 34.9344,
        "meta_ra_of_asc_node": 81.322,
        "meta_arg_of_pericenter": 126.9571,
        "meta_mean_anomaly": 233.1929,
        "meta_ephemeris_type": 0,
        "meta_classification_type": "U",
        "meta_norad_cat_id": 41885,
        "meta_element_set_no": 999,
        "meta_rev_at_epoch": 49853,
        "meta_bstar": 0.0011386,
        "meta_mean_motion_dot": 0.0006591,
        "meta_mean_motion_ddot": 0,
        "tle_line1": "1 41885U 16078B   25337.67996250  .00065910  00000+0  11386-2 0  9993",
        "tle_line2": "2 41885  34.9344  81.3220 0008489 126.9571 233.1929 15.49783379498535"
      },
      "geometry": {
        "type": "Point",
        "coordinates": [
          75.01338102357944,
          -0.8675071446540162
        ]
      }
    },
    {
      "type": "Feature",
      "properties": {
        "norad_id": 41886,
        "name": "CYGFM02",
        "group": "weather",
        "lat": -16.263522345966454,
        "lon": 49.99296302514181,
        "alt_km": 420.60338530112676,
        "timestamp": "2025-12-04T10:51:49.749528+00:00",
        "meta_object_name": "CYGFM02",
        "meta_object_id": "2016-078C",
        "meta_epoch": "2025-12-03T16:27:15.350112",
        "meta_mean_motion": 15.51121687,
        "meta_eccentricity": 0.0010217,
        "meta_inclination": 34.9434,
        "meta_ra_of_asc_node": 79.7274,
        "meta_arg_of_pericenter": 125.87,
        "meta_mean_anomaly": 234.2972,
        "meta_ephemeris_type": 0,
        "meta_classification_type": "U",
        "meta_norad_cat_id": 41886,
        "meta_element_set_no": 999,
        "meta_rev_at_epoch": 49866,
        "meta_bstar": 0.0006192,
        "meta_mean_motion_dot": 0.00037463,
        "meta_mean_motion_ddot": 0,
        "tle_line1": "1 41886U 16078C   25337.68559433  .00037463  00000+0  61920-3 0  9995",
        "tle_line2": "2 41886  34.9434  79.7274 0010217 125.8700 234.2972 15.51121687498665"
      },
      "geometry": {
        "type": "Point",
        "coordinates": [
          49.99296302514181,
          -16.263522345966454
        ]
      }
    },
    {
      "type": "Feature",
      "properties": {
        "norad_id": 41887,
        "name": "CYGFM01",
        "group": "weather",
        "lat": -24.777963716997736,
        "lon": -34.961323468332075,
        "alt_km": 428.9456782245916,
        "timestamp": "2025-12-04T10:51:49.749538+00:00",
        "meta_object_name": "CYGFM01",
        "meta_object_id": "2016-078D",
        "meta_epoch": "2025-12-03T18:24:28.844928",
        "meta_mean_motion": 15.4768667,
        "meta_eccentricity": 0.00090329,
        "meta_inclination": 34.9412,
        "meta_ra_of_asc_node": 108.1317,
        "meta_arg_of_pericenter": 88.3823,
        "meta_mean_anomaly": 271.7933,
        "meta_ephemeris_type": 0,
        "meta_classification_type": "U",
        "meta_norad_cat_id": 41887,
        "meta_element_set_no": 999,
        "meta_rev_at_epoch": 49831,
        "meta_bstar": 0.00054644493,
        "meta_mean_motion_dot": 0.00029225,
        "meta_mean_motion_ddot": 0,
        "tle_line1": "1 41887U 16078D   25337.76700052  .00029225  00000+0  54644-3 0  9992",
        "tle_line2": "2 41887  34.9412 108.1317 0009032  88.3823 271.7933 15.47686670498317"
      },
      "geometry": {
        "type": "Point",
        "coordinates": [
          -34.961323468332075,
          -24.777963716997736
        ]
      }
    },
    {
      "type": "Feature",
      "properties": {
        "norad_id": 41888,
        "name": "CYGFM08",
        "group": "weather",
        "lat": -29.647891424262607,
        "lon": -38.662926378127075,
        "alt_km": 425.12818399241223,
        "timestamp": "2025-12-04T10:51:49.749549+00:00",
        "meta_object_name": "CYGFM08",
        "meta_object_id": "2016-078E",
        "meta_epoch": "2025-12-04T00:33:13.377600",
        "meta_mean_motion": 15.48884344,
        "meta_eccentricity": 0.0010702,
        "meta_inclination": 34.9454,
        "meta_ra_of_asc_node": 89.5504,
        "meta_arg_of_pericenter": 117.3678,
        "meta_mean_anomaly": 242.8134,
        "meta_ephemeris_type": 0,
        "meta_classification_type": "U",
        "meta_norad_cat_id": 41888,
        "meta_element_set_no": 999,
        "meta_rev_at_epoch": 49858,
        "meta_bstar": 0.0006709,
        "meta_mean_motion_dot": 0.00037497,
        "meta_mean_motion_ddot": 0,
        "tle_line1": "1 41888U 16078E   25338.02307150  .00037497  00000+0  67090-3 0  9994",
        "tle_line2": "2 41888  34.9454  89.5504 0010702 117.3678 242.8134 15.48884344498581"
      },
      "geometry": {
        "type": "Point",
        "coordinates": [
          -38.662926378127075,
          -29.647891424262607
        ]
      }
    }
  ]
}